TDRS 3                  
1 19548U 88091B   26201.27954933 -.00000305  00000+0  00000+0 0  9993
2 19548  12.5772 340.7827 0037981 355.2556  13.6101  1.00279581125725
FLTSATCOM 8 (USA 46)    
1 20253U 89077A   26201.28680927 -.00000373  00000+0  00000+0 0  9998
2 20253  12.4121 350.9591 0002288 100.1154  75.8349  1.00280860260895
SKYNET 4C               
1 20776U 90079A   26200.73378206 -.00000256  00000+0  00000+0 0  9995
2 20776  13.3275 349.6095 0002982 131.3600 244.0977  0.98580483   363
TDRS 5                  
1 21639U 91054B   26201.08616796  .00000076  00000+0  00000+0 0  9995
2 21639  14.0668 353.5340 0007248 256.9198 270.7747  1.00276242128045
TDRS 6                  
1 22314U 93003B   26201.32403271 -.00000303  00000+0  00000+0 0  9995
2 22314  14.1834 356.8076 0008692 185.7813 186.2624  1.00277874122749
UFO 2 (USA 95)          
1 22787U 93056A   26201.12494814  .00000117  00000+0  00000+0 0  9990
2 22787  11.9063   3.3670 0002098   3.3962   4.7273  1.00272789118884
UFO 4 (USA 108)         
1 23467U 95003A   26200.72822441 -.00000030  00000+0  00000+0 0  9991
2 23467   9.6796  12.9923 0002991  96.6441 262.4015  1.00269133115279
TDRS 7                  
1 23613U 95035B   26201.42205312 -.00000247  00000+0  00000+0 0  9999
2 23613  13.3634 347.9563 0011196  87.6598 103.7931  1.00272469113588
USA 115 (MILSTAR-1 2)   
1 23712U 95060A   26201.45784894 -.00000210  00000+0  00000+0 0  9997
2 23712  14.0846   3.4968 0006297 122.5035 247.0382  1.00272379 33229
INMARSAT 3-F1           
1 23839U 96020A   26201.22878735  .00000070  00000+0  00000+0 0  9990
2 23839  10.6674  46.3232 0004655  96.8754 107.1346  0.99981752110587
INMARSAT 3-F2           
1 24307U 96053A   26201.49882306 -.00000354  00000+0  00000+0 0  9991
2 24307   9.9294  53.5901 0006228  60.9732 119.6536  0.99988666109258
INMARSAT 3-F3           
1 24674U 96070A   26201.26366918 -.00000005  00000+0  00000+0 0  9991
2 24674  10.3872  49.3286 0003653  86.6725 265.9029  0.99997013108233
USA 134                 
1 25019U 97065A   26201.28231473 -.00000072  00000+0  00000+0 0  9993
2 25019  12.8230  21.4711 0002611 341.2218 284.6342  1.00275933 33287
INMARSAT 3-F5           
1 25153U 98006B   26201.11797501 -.00000299  00000+0  00000+0 0  9990
2 25153   9.7651  52.9272 0004530  65.9117 167.5700  1.00271806104224
ABS-6                   
1 25924U 99053A   26201.54975258 -.00000119  00000+0  00000+0 0  9994
2 25924   0.0785 263.4578 0003414 211.8224 179.9679  1.00278742 98175
UFO 10 (USA 146)        
1 25967U 99063A   26201.32862606 -.00000195  00000+0  00000+0 0  9994
2 25967   9.8499  27.0310 0001814 130.1851 236.2532  1.00271858 97681
ASIASTAR                
1 26107U 00016A   26201.55044767 -.00000340  00000+0  00000+0 0  9998
2 26107   9.2053  57.7933 0004018  71.7369 111.9326  1.00269282 96252
USA 149 (DSP 20)        
1 26356U 00024A   26201.30598421  .00000087  00000+0  00000+0 0  9994
2 26356  13.1954  11.6128 0000313 268.2979 323.4716  1.00261519 33249
TDRS 8                  
1 26388U 00034A   26201.06476120 -.00000205  00000+0  00000+0 0  9997
2 26388  12.7338  31.0366 0003649  40.7956 334.1707  1.00271427 95514
NSS-11                  
1 26554U 00059A   26201.52753277  .00000022  00000+0  00000+0 0  9997
2 26554   2.2107  80.9964 0003126  47.3724 175.8399  1.00272897 41622
USA 153                 
1 26575U 00065A   26201.46807958 -.00000332  00000+0  00000+0 0  9991
2 26575  11.6805  35.1387 0002146  58.9375 147.1547  1.00271899 33265
AMC-6                   
1 26580U 00067A   26201.50044718  .00000087  00000+0  00000+0 0  9997
2 26580   0.2352  83.8823 0004074  47.5898 211.9043  1.00272354 94224
USA 157 (MILSTAR-2 2)   
1 26715U 01009A   26201.34211175  .00000102  00000+0  00000+0 0  9997
2 26715  11.5788  19.5545 0040487 179.1154  72.5889  1.00277347 33278
INTELSAT 902 (IS-902)   
1 26900U 01039A   26201.46582230 -.00000288  00000+0  00000+0 0  9998
2 26900   6.1972  71.3725 0004149  48.0308 296.4297  1.00270704 91022
USA 164 (MILSTAR-2 3)   
1 27168U 02001A   26201.19436641  .00000089  00000+0  00000+0 0  9997
2 27168  11.2185  21.7023 0099204   9.1757 356.0281  1.00269032 33297
INTELSAT 904 (IS-904)   
1 27380U 02007A   26201.39821969 -.00000231  00000+0  00000+0 0  9992
2 27380   7.0008  68.7831 0005213  27.6483 313.6153  1.00273916 52098
DIRECTV 5 (TEMPO 1)     
1 27426U 02023A   26201.36325747 -.00000062  00000+0  00000+0 0  9993
2 27426   4.9605  74.8954 0003078  38.8350 205.0703  1.00271984 88453
INTELSAT 905 (IS-905)   
1 27438U 02027A   26201.10570035  .00000087  00000+0  00000+0 0  9990
2 27438   6.8340  69.3997 0003611  49.8706  79.4617  1.00273493 51699
GALAXY 3C (G-3C)        
1 27445U 02030A   26201.43113156 -.00000156  00000+0  00000+0 0  9993
2 27445   3.8182  77.5485 0001756  30.5553 250.4646  1.00271267 46825
INTELSAT 906 (IS-906)   
1 27513U 02041A   26201.20329311  .00000007  00000+0  00000+0 0  9992
2 27513   5.8825  72.5101 0003457  29.5232 333.2928  1.00270956 87360
NIMIQ 2                 
1 27632U 02062A   26201.53297047 -.00000076  00000+0  00000+0 0  9990
2 27632   9.5209  56.5423 0005463  57.9210 266.4944  1.00272295 44511
